SKYTERRA 1              
1 37218U 10061A   26182.70672763 -.00000110  00000+0  00000+0 0  9997
2 37218   5.1543  50.8288 0002390  36.0483 345.9963  1.00270658 57347
O/OREOS (USA 219)       
1 37224U 10062C   26182.32648406  .00002639  00000+0  25408-3 0  9990
2 37224  71.9707  48.3104 0013166  32.9496 327.2493 14.93804016118759
FASTSAT-HSV01 (USA 220) 
1 37225U 10062D   26182.94442314  .00000638  00000+0  87197-4 0  9990
2 37225  71.9719 126.8975 0014542 101.9504 258.3291 14.82153600116311
HYLAS 1                 
1 37237U 10065A   26181.30407082  .00000096  00000+0  00000+0 0  9999
2 37237   5.6751  72.8623 0001043 340.0885 348.6881  1.00272596  7010
INTELSAT 17 (IS-17)     
1 37238U 10065B   26182.95441804  .00000000  00000+0  00000+0 0  9997
2 37238   0.0295  84.4606 0002693  37.3725 207.7338  1.00270653 53390
BEIDOU-2 IGSO-2         
1 37256U 10068A   26181.67923229 -.00000187  00000+0  00000+0 0  9991
2 37256  47.5224 271.6646 0056566 213.8845 145.9362  1.00279341 56930
EUTELSAT KA-SAT 9A      
1 37258U 10069A   26182.87197624  .00000071  00000+0  00000+0 0  9990
2 37258   0.0607  12.6745 0004140 127.5362 102.6028  1.00267490 44152
HISPASAT 30W-5          
1 37264U 10070A   26182.72120103 -.00000205  00000+0  00000+0 0  9991
2 37264   0.0388 107.9174 0005843   5.4937  35.9968  1.00271825 53330
KOREASAT 6              
1 37265U 10070B   26182.90136935 -.00000101  00000+0  00000+0 0  9997
2 37265   0.0144  51.7696 0002688  59.8204 292.7361  1.00272246 56915
BEIDOU-2 IGSO-3         
1 37384U 11013A   26182.53461287 -.00000159  00000+0  00000+0 0  9990
2 37384  62.4273  40.0161 0035225 184.0407 355.1634  1.00264921 55804
RESOURCESAT-2           
1 37387U 11015A   26182.93979507  .00000098  00000+0  64778-4 0  9996
2 37387  98.7639 250.2794 0010793 209.3896 150.6675 14.21603390788279
YOUTHSAT                
1 37388U 11015B   26182.89384332  .00000180  00000+0  93567-4 0  9998
2 37388  98.3691 156.2853 0013412 301.9045 112.8510 14.25636174789731
X-SAT                   
1 37389U 11015C   26182.89842247  .00000120  00000+0  68683-4 0  9998
2 37389  98.3514 159.2215 0013012 303.5793  56.4144 14.25210748789770
INTELSAT 28 (IS-28)     
1 37392U 11016A   26182.79216285 -.00000216  00000+0  00000+0 0  9990
2 37392   1.8419  82.4554 0003992  18.1963  72.6195  1.00270148 53436
YAHSAT 1A               
1 37393U 11016B   26182.88008998  .00000000  00000+0  00000+0 0  9991
2 37393   0.0190  38.5388 0003657  77.7658 172.9602  1.00269812 42555
SBIRS GEO-1 (USA 230)   
1 37481U 11019A   26182.81364362  .00000108  00000+0  00000+0 0  9994
2 37481   4.5677  53.1152 0001925  39.6054 171.8472  1.00272281 55547
TELSTAR 14R             
1 37602U 11021A   26182.92848279 -.00000269  00000+0  00000+0 0  9997
2 37602   0.0535  82.0236 0002304 354.0345 115.1815  1.00271227 55988
GSAT-8                  
1 37605U 11022A   26182.88060998  .00000093  00000+0  00000+0 0  9994
2 37605   2.1670  81.6550 0001826 173.9326  36.4577  1.00272728 53360
ST-2                    
1 37606U 11022B   26182.90470721 -.00000201  00000+0  00000+0 0  9999
2 37606   0.0182  44.1291 0001769  65.3380 224.2047  1.00272214 55420
ZHONGXING-10            
1 37677U 11026A   26182.95794512 -.00000179  00000+0  00000+0 0  9997
2 37677   1.0839  84.0505 0003808  10.6770 255.6722  1.00272130 55145
SJ-11-03                
1 37730U 11030A   26182.96926686  .00000509  00000+0  10506-3 0  9994
2 37730  97.9344 146.4774 0008282 357.4871  95.3832 14.64350527799277
GLOBALSTAR M083         
1 37739U 11033A   26182.80818249 -.00000079  00000+0  13866-3 0  9999
2 37739  51.9877 327.9956 0000945  89.4379  75.7875 12.62263793694792
GLOBALSTAR M088         
1 37740U 11033B   26182.86278041 -.00000078  00000+0  14295-3 0  9993
2 37740  52.0195 234.2940 0000354 147.5976  24.3785 12.62269178690345
GLOBALSTAR M091         
1 37741U 11033C   26182.79657985 -.00000106  00000+0 -14593-4 0  9999
2 37741  51.9966 197.4380 0000071 342.2921 189.5041 12.62264193691126
GLOBALSTAR M085         
1 37742U 11033D   26182.91048674 -.00000116  00000+0 -68294-4 0  9991
2 37742  52.0105 148.3949 0000460   9.6271  20.0834 12.62264203691653
GLOBALSTAR M081         
1 37743U 11033E   26182.85434110 -.00000116  00000+0 -69572-4 0  9999
2 37743  51.9936 150.9854 0000359  37.8691 336.3305 12.62265300691794
GLOBALSTAR M089         
1 37744U 11033F   26182.81929862 -.00000100  00000+0  23559-4 0  9996
2 37744  51.9926 105.2484 0000557  79.5021 316.3719 12.62267404692634
SES-3                   
1 37748U 11035A   26182.92059610 -.00000092  00000+0  00000+0 0  9990
2 37748   1.3628  82.9421 0002410   8.8240  56.6204  1.00272349 54747
KAZSAT-2                
1 37749U 11035B   26182.90330834 -.00000188  00000+0  00000+0 0  9995
2 37749   0.0119  75.3648 0001781  77.8429 178.4355  1.00273613 53543
NAVSTAR 66 (USA 232)    
1 37753U 11036A   26182.82709913 -.00000080  00000+0  00000+0 0  9991
2 37753  56.5578 331.4505 0141811  62.7391 299.8175  2.00562268109572
BEIDOU-2 IGSO-4         
1 37763U 11038A   26181.94400016  .00000017  00000+0  00000+0 0  9997
2 37763  54.6040 165.5504 0159650 231.3791 315.8344  1.00282911 54781
